[{"OBJECT_NAME":"KUIPER-00135","OBJECT_ID":"2025-228Q","EPOCH":"2026-03-09T22:37:04.119456","MEAN_MOTION":14.79918381,"ECCENTRICITY":7.784e-5,"INCLINATION":51.9042,"RA_OF_ASC_NODE":349.5544,"ARG_OF_PERICENTER":95.0857,"MEAN_ANOMALY":265.0194,"EPHEMERIS_TYPE":0,"CLASSIFICATION_TYPE":"U","NORAD_CAT_ID":65961,"ELEMENT_SET_NO":999,"REV_AT_EPOCH":2340,"BSTAR":-0.0013645171,"MEAN_MOTION_DOT":-0.00010603,"MEAN_MOTION_DDOT":0},{"OBJECT_NAME":"SL-14 R\/B","OBJECT_ID":"1986-034B","EPOCH":"2026-03-09T17:33:34.706880","MEAN_MOTION":14.85668691,"ECCENTRICITY":0.00196698,"INCLINATION":82.5555,"RA_OF_ASC_NODE":146.993,"ARG_OF_PERICENTER":20.7414,"MEAN_ANOMALY":99.0212,"EPHEMERIS_TYPE":0,"CLASSIFICATION_TYPE":"U","NORAD_CAT_ID":16720,"ELEMENT_SET_NO":999,"REV_AT_EPOCH":13087,"BSTAR":5.9834007e-5,"MEAN_MOTION_DOT":5.45e-6,"MEAN_MOTION_DDOT":0}]
